REAL                    
1 64875U 25154G   26068.72233414  .00022901  00000+0  82904-3 0  9994
2 64875  97.4133 137.2581 0001853 118.5876 241.5550 15.28408058 34830
STARLINK-36422          
1 67344U 26003L   26068.46969109  .00031958  00000+0  11656-2 0  9997
2 67344  43.0012 228.0069 0001640 256.6879 103.3790 15.27586691  8794
